STARLINK-32793          
1 62874U 25022W   26068.46288376  .00035970  00000+0  12214-2 0  9999
2 62874  53.1580 130.8017 0001319  72.4699 287.6446 15.30182610 61867
KUIPER-00175            
1 67135U 25301C   26068.97960463  .00019968  00000+0  66732-3 0  9998
2 67135  51.8781  63.6978 0002279  50.5695 309.5490 15.30996371 13854
